NORAD_CAT_ID,OBJECT_NAME,OBJECT_TYPE,EPOCH,MEAN_MOTION,ECCENTRICITY,INCLINATION,RA_OF_ASC_NODE,ARG_OF_PERICENTER,MEAN_ANOMALY,BSTAR,MEAN_MOTION_DOT,MEAN_MOTION_DDOT,TLE_LINE0,TLE_LINE1,TLE_LINE2,SEMIMAJOR_AXIS,PERIOD,APOGEE,PERIGEE,DECAYED
51990.0,STARLINK-3657,PAYLOAD,2023-03-29 09:51:53,15.08855347,0.0001192,53.2146,170.726,54.0994,306.0109,0.0018348,0.00029046,0.0,0 STARLINK-3657,1 51990U 22025AL  23088.41104014  .00029046  00000-0  18348-2 0  9998,2 51990  53.2146 170.7260 0001192  54.0994 306.0109 15.08855347 59957,6917.833,95.437,540.523,538.874,0.0
51990.0,STARLINK-3657,PAYLOAD,2023-03-29 13:02:39,15.0886612,0.0001281,53.2145,170.1298,71.182,288.9311,0.0023221,0.00036888,0.0,0 STARLINK-3657,1 51990U 22025AL  23088.54351823  .00036888  00000-0  23221-2 0  9992,2 51990  53.2145 170.1298 0001281  71.1820 288.9311 15.08866120 58872,6917.801,95.436,540.552,538.779,0.0
51990.0,STARLINK-3657,PAYLOAD,2023-03-29 17:48:48,15.08886335,0.000132,53.2146,169.2361,71.814,288.2996,0.0028517,0.00045447,0.0,0 STARLINK-3657,1 51990U 22025AL  23088.74223324  .00045447  00000-0  28517-2 0  9992,2 51990  53.2146 169.2361 0001320  71.8140 288.2996 15.08886335 60009,6917.739,95.435,540.517,538.691,0.0
51990.0,STARLINK-3657,PAYLOAD,2023-03-30 04:56:31,15.08838875,9.54e-05,53.2141,167.1564,96.226,263.8841,0.00052246,8.037e-05,0.0,0 STARLINK-3657,1 51990U 22025AL  23089.20591868  .00008037  00000-0  52246-3 0  9996,2 51990  53.2141 167.1564 0000954  96.2260 263.8841 15.08838875 60073,6917.884,95.438,540.409,539.089,0.0
51990.0,STARLINK-3657,PAYLOAD,2023-03-30 11:18:04,15.08850959,0.0001205,53.2141,165.9657,88.8813,271.2317,0.0023793,0.00037793,0.0,0 STARLINK-3657,1 51990U 22025AL  23089.47088152  .00037793  00000-0  23793-2 0  9997,2 51990  53.2141 165.9657 0001205  88.8813 271.2317 15.08850959 60116,6917.847,95.437,540.545,538.878,0.0
51990.0,STARLINK-3657,PAYLOAD,2023-03-31 09:33:28,15.08873107,0.000169,53.2156,161.8002,92.1981,267.9204,0.0024279,0.00038599,0.0,0 STARLINK-3657,1 51990U 22025AL  23090.39824292  .00038599  00000-0  24279-2 0  9998,2 51990  53.2156 161.8002 0001690  92.1981 267.9204 15.08873107 60255,6917.779,95.435,540.813,538.475,0.0
51990.0,STARLINK-3657,PAYLOAD,2023-03-31 15:54:59,15.08907905,0.0001747,53.2159,160.61,80.2688,279.8501,0.0031736,0.00050678,0.0,0 STARLINK-3657,1 51990U 22025AL  23090.66319360  .00050678  00000-0  31736-2 0  9991,2 51990  53.2159 160.6100 0001747  80.2688 279.8501 15.08907905 60299,6917.673,95.433,540.746,538.329,0.0
51990.0,STARLINK-3657,PAYLOAD,2023-04-01 10:59:38,15.08815819,0.0001235,53.2151,157.0446,94.7711,265.3422,0.001038,0.00016259,0.0,0 STARLINK-3657,1 51990U 22025AL  23091.45808925  .00016259  00000-0  10380-2 0  9998,2 51990  53.2151 157.0446 0001235  94.7711 265.3422 15.08815819 60411,6917.954,95.439,540.674,538.965,0.0
51990.0,STARLINK-3657,PAYLOAD,2023-04-01 15:45:48,15.08821893,0.000138,53.2162,156.1517,100.6465,259.4682,0.00121,0.00019012,0.0,0 STARLINK-3657,1 51990U 22025AL  23091.65681233  .00019012  00000-0  12100-2 0  9993,2 51990  53.2162 156.1517 0001380 100.6465 259.4682 15.08821893 59347,6917.936,95.439,540.755,538.846,0.0
51990.0,STARLINK-3657,PAYLOAD,2023-04-02 10:50:26,15.08860218,0.0001451,53.2155,152.5841,100.9975,259.118,0.0014332,0.00022608,0.0,0 STARLINK-3657,1 51990U 22025AL  23092.45169074  .00022608  00000-0  14332-2 0  9990,2 51990  53.2155 152.5841 0001451 100.9975 259.1180 15.08860218 59464,6917.819,95.436,540.687,538.68,0.0
51990.0,STARLINK-3657,PAYLOAD,2023-04-02 15:36:35,15.08875961,0.0001394,53.2164,151.6925,93.0761,267.039,0.0016268,0.00025723,0.0,0 STARLINK-3657,1 51990U 22025AL  23092.65040603  .00025723  00000-0  16268-2 0  9999,2 51990  53.2164 151.6925 0001394  93.0761 267.0390 15.08875961 60596,6917.77,95.435,540.6,538.671,0.0
51990.0,STARLINK-3657,PAYLOAD,2023-04-02 20:22:44,15.08853936,0.0001874,53.2169,150.8033,196.7666,163.3264,-0.00086623,-0.00014053,0.0,0 STARLINK-3657,1 51990U 22025AL  23092.84912076 -.00014053  00000-0 -86623-3 0  9991,2 51990  53.2169 150.8033 0001874 196.7666 163.3264 15.08853936 59527,6917.838,95.437,540.999,538.406,0.0
51990.0,STARLINK-3657,PAYLOAD,2023-04-03 13:51:59,15.0885061,0.000124,53.2158,147.5303,100.1196,259.9936,0.0013925,0.0002195,0.0,0 STARLINK-3657,1 51990U 22025AL  23093.57776977  .00021950  00000-0  13925-2 0  9996,2 51990  53.2158 147.5303 0001240 100.1196 259.9936 15.08850610 59638,6917.848,95.437,540.571,538.855,0.0
51990.0,STARLINK-3657,PAYLOAD,2023-04-03 20:13:31,15.08848745,0.0001113,53.2149,146.3397,97.5319,262.58,0.0011315,0.0001777,0.0,0 STARLINK-3657,1 51990U 22025AL  23093.84272969  .00017770  00000-0  11315-2 0  9994,2 51990  53.2149 146.3397 0001113  97.5319 262.5800 15.08848745 59673,6917.854,95.437,540.489,538.949,0.0
51990.0,STARLINK-3657,PAYLOAD,2023-04-04 08:56:37,15.08842712,0.0001431,53.2159,143.9605,103.5769,256.5382,0.00026653,3.957e-05,0.0,0 STARLINK-3657,1 51990U 22025AL  23094.37265075  .00003957  00000-0  26653-3 0  9997,2 51990  53.2159 143.9605 0001431 103.5769 256.5382 15.08842712 60857,6917.872,95.437,540.727,538.747,0.0
51990.0,STARLINK-3657,PAYLOAD,2023-04-04 12:07:23,15.0884749,0.0001475,53.2158,143.3661,103.8629,256.2527,0.00039169,5.953e-05,0.0,0 STARLINK-3657,1 51990U 22025AL  23094.50512943  .00005953  00000-0  39169-3 0  9995,2 51990  53.2158 143.3661 0001475 103.8629 256.2527 15.08847490 59773,6917.857,95.437,540.743,538.702,0.0
51990.0,STARLINK-3657,PAYLOAD,2023-04-05 10:22:47,15.08838197,0.0001502,53.2161,139.2029,97.3713,262.745,-6.3614e-05,-1.3e-05,0.0,0 STARLINK-3657,1 51990U 22025AL  23095.43249319 -.00001300  00000-0 -63614-4 0  9999,2 51990  53.2161 139.2029 0001502  97.3713 262.7450 15.08838197 61012,6917.886,95.438,540.79,538.712,0.0
51990.0,STARLINK-3657,PAYLOAD,2023-04-05 15:08:56,15.08840733,0.0001523,53.216,138.3105,98.3688,261.7477,7.0787e-05,8.39e-06,0.0,0 STARLINK-3657,1 51990U 22025AL  23095.63121336  .00000839  00000-0  70787-4 0  9992,2 51990  53.2160 138.3105 0001523  98.3688 261.7477 15.08840733 59947,6917.878,95.438,540.797,538.69,0.0
51990.0,STARLINK-3657,PAYLOAD,2023-04-06 10:13:34,15.0884794,0.0001474,53.2157,134.741,89.903,270.2131,0.00012623,1.722e-05,0.0,0 STARLINK-3657,1 51990U 22025AL  23096.42608983  .00001722  00000-0  12623-3 0  9994,2 51990  53.2157 134.7410 0001474  89.9030 270.2131 15.08847940 61160,6917.856,95.437,540.741,538.701,0.0
51990.0,STARLINK-3657,PAYLOAD,2023-04-06 11:48:57,15.08848511,0.0001527,53.2161,134.4425,92.4181,267.6986,0.00017181,2.448e-05,0.0,0 STARLINK-3657,1 51990U 22025AL  23096.49232906  .00002448  00000-0  17181-3 0  9999,2 51990  53.2161 134.4425 0001527  92.4181 267.6986 15.08848511 60075,6917.854,95.437,540.776,538.663,0.0
51990.0,STARLINK-3657,PAYLOAD,2023-04-06 14:59:42,15.08865058,0.0001425,53.2161,133.8475,90.6854,269.4301,-0.00028969,-4.899e-05,0.0,0 STARLINK-3657,1 51990U 22025AL  23096.62479873 -.00004899  00000-0 -28969-3 0  9990,2 51990  53.2161 133.8475 0001425  90.6854 269.4301 15.08865058 61197,6917.804,95.436,540.655,538.683,0.0
51990.0,STARLINK-3657,PAYLOAD,2023-04-07 08:28:58,15.08840351,0.0001804,53.2172,130.5697,113.188,246.9303,6.8695e-05,8.05e-06,0.0,0 STARLINK-3657,1 51990U 22025AL  23097.35345332  .00000805  00000-0  68695-4 0  9995,2 51990  53.2172 130.5697 0001804 113.1880 246.9303 15.08840351 61304,6917.879,95.438,540.992,538.496,0.0
51990.0,STARLINK-3657,PAYLOAD,2023-04-08 01:58:13,15.08831541,0.0001603,53.2151,127.3066,79.5222,280.5951,-2.8624e-05,-7.43e-06,0.0,0 STARLINK-3657,1 51990U 22025AL  23098.08210338 -.00000743  00000-0 -28624-4 0  9994,2 51990  53.2151 127.3066 0001603  79.5222 280.5951 15.08831541 61413,6917.906,95.438,540.88,538.662,0.0
51990.0,STARLINK-3657,PAYLOAD,2023-04-08 11:30:32,15.08837301,0.000145,53.2165,125.5228,82.979,277.1367,-6.0457e-05,-1.25e-05,0.0,0 STARLINK-3657,1 51990U 22025AL  23098.47954467 -.00001250  00000-0 -60457-4 0  9999,2 51990  53.2165 125.5228 0001450  82.9790 277.1367 15.08837301 60373,6917.889,95.438,540.757,538.751,0.0
51990.0,STARLINK-3657,PAYLOAD,2023-04-09 08:10:32,15.08841207,0.0001495,53.2161,121.6576,81.4101,278.7061,0.0001828,2.623e-05,0.0,0 STARLINK-3657,1 51990U 22025AL  23099.34065911  .00002623  00000-0  18280-3 0  9992,2 51990  53.2161 121.6576 0001495  81.4101 278.7061 15.08841207 61606,6917.877,95.437,540.776,538.707,0.0
51990.0,STARLINK-3657,PAYLOAD,2023-04-09 11:21:19,15.08843413,0.0001502,53.2163,121.063,80.9904,279.1258,0.00019849,2.873e-05,0.0,0 STARLINK-3657,1 51990U 22025AL  23099.47313763  .00002873  00000-0  19849-3 0  9996,2 51990  53.2163 121.0630 0001502  80.9904 279.1258 15.08843413 60521,6917.87,95.437,540.774,538.696,0.0
51990.0,STARLINK-3657,PAYLOAD,2023-04-10 12:47:28,15.08857101,0.000159,53.2155,116.3048,85.4319,274.6855,0.00036469,5.523e-05,0.0,0 STARLINK-3657,1 51990U 22025AL  23100.53297387  .00005523  00000-0  36469-3 0  9991,2 51990  53.2155 116.3048 0001590  85.4319 274.6855 15.08857101 60688,6917.828,95.436,540.793,538.593,0.0
51990.0,STARLINK-3657,PAYLOAD,2023-04-10 17:33:38,15.08840527,0.0001106,53.2162,115.4144,89.5234,270.5885,-6.6586e-05,-1.347e-05,0.0,0 STARLINK-3657,1 51990U 22025AL  23100.73169778 -.00001347  00000-0 -66586-4 0  9991,2 51990  53.2162 115.4144 0001106  89.5234 270.5885 15.08840527 61815,6917.879,95.438,540.509,538.979,0.0
51990.0,STARLINK-3657,PAYLOAD,2023-04-11 09:27:29,15.0884713,0.0001476,53.2159,112.4397,83.7779,276.3382,3.7835e-05,3.14e-06,0.0,0 STARLINK-3657,1 51990U 22025AL  23101.39409454  .00000314  00000-0  37835-4 0  9998,2 51990  53.2159 112.4397 0001476  83.7779 276.3382 15.08847130 60810,6917.859,95.437,540.745,538.703,0.0
51990.0,STARLINK-3657,PAYLOAD,2023-04-11 17:24:25,15.08841509,0.0001524,53.2158,110.9522,82.4301,277.6864,-4.2678e-05,-9.67e-06,0.0,0 STARLINK-3657,1 51990U 22025AL  23101.72529642 -.00000967  00000-0 -42678-4 0  9994,2 51990  53.2158 110.9522 0001524  82.4301 277.6864 15.08841509 60861,6917.876,95.437,540.795,538.686,0.0
